IRIDIUM 166             
1 43570U 18061B   23251.88405773  .00000222  00000+0  72038-4 0  9999
2 43570  86.3953 119.8462 0002146  78.9668 281.1769 14.34217138268300
IRIDIUM 158             
1 43571U 18061C   23251.71280653  .00000342  00000+0  11506-3 0  9995
2 43571  86.3955 119.9269 0001810  78.3020 281.8379 14.34215213268241
IRIDIUM 165             
1 43572U 18061D   23251.73817811  .00000312  00000+0  10449-3 0  9992
2 43572  86.3956 119.9434 0001747  78.1738 281.9654 14.34214163268273
IRIDIUM 155             
1 43573U 18061E   23251.70012900  .00000265  00000+0  87424-4 0  9991
2 43573  86.3952 119.8782 0002346  84.7705 275.3758 14.34216340268235
IRIDIUM 154             
1 43574U 18061F   23251.89039869  .00000031  00000+0  38580-5 0  9996
2 43574  86.3954 119.8827 0001929  91.8842 268.2575 14.34216614268316
IRIDIUM 163             
1 43575U 18061G   23251.87137489  .00000367  00000+0  12388-3 0  9990
2 43575  86.3954 119.8375 0002028  86.5656 273.5772 14.34217004268288
IRIDIUM 156             
1 43576U 18061H   23251.70646650  .00000324  00000+0  10877-3 0  9992
2 43576  86.3953 119.9124 0002165  78.4691 281.6748 14.34216833268251
IRIDIUM 164             
1 43577U 18061J   23251.68743636  .00000280  00000+0  92747-4 0  9990
2 43577  86.3954 119.9451 0001940  80.5381 279.6034 14.34219192268296
